STARLINK-5411           
1 54865U 22177AX  24038.97382181  .00000957  00000+0  85935-4 0  9997
2 54865  43.0021 293.8622 0001617 250.9086 109.1582 15.02537415 61575
STARLINK-5398           
1 54866U 22177AY  24038.68238414  .00001252  00000+0  10770-3 0  9998
2 54866  43.0009 295.1185 0000732 284.2555  75.8206 15.02536188 62635
STARLINK-5396           
1 54867U 22177AZ  24039.09346111  .00002088  00000+0  16962-3 0  9996
2 54867  43.0010 293.0419 0001040 278.8729  81.1995 15.02536413 61590
STARLINK-5379           
1 54868U 22177BA  24039.40920231  .00007731  00000+0  58671-3 0  9996
2 54868  43.0020 291.1095 0001360 271.6358  88.4329 15.02535768 61633
STARLINK-5402           
1 54869U 22177BB  24039.08680218 -.00000910  00000+0 -52315-4 0  9993
2 54869  43.0030 292.9906 0001165 277.2545  82.8165 15.02537366 61595
STARLINK-5401           
1 54870U 22177BC  24039.41141942 -.00003589  00000+0 -25069-3 0  9998
2 54870  43.0032 291.1261 0001137 276.8213  83.2500 15.02539280 61641
STARLINK-5397           
1 54871U 22177BD  24038.68904518  .00001364  00000+0  11602-3 0  9998
2 54871  42.9998 295.1677 0000715 257.1641 102.9121 15.02534434 62638
STARLINK-5390           
1 54872U 22177BE  24038.40648494  .00002059  00000+0  16741-3 0  9998
2 54872  43.0017 296.5102 0001319 269.5500  90.5191 15.02539411 61484
STARLINK-5091           
1 54873U 22177BF  24039.40586828 -.00000246  00000+0 -31368-5 0  9994
2 54873  43.0049 291.0831 0001232 261.4152  98.6551 15.02540828 61761
STARLINK-5277           
1 55269U 23010A   24038.75798115  .00001387  00000+0  12397-3 0  9996
2 55269  70.0005 163.1195 0003347 271.8185  88.2591 14.98340370 59080
STARLINK-5301           
1 55270U 23010B   24038.77050291  .00000476  00000+0  47692-4 0  9991
2 55270  70.0020 163.1651 0002698 258.6069 101.4787 14.98327685 58806
STARLINK-5306           
1 55271U 23010C   24038.76215232 -.00000422  00000+0 -27602-4 0  9991
2 55271  70.0009 163.1341 0003127 269.4144  90.6657 14.98326920 58808
STARLINK-5310           
1 55272U 23010D   24039.50903542  .00000065  00000+0  13264-4 0  9993
2 55272  70.0012 161.3271 0002739 262.5971  97.4877 14.98330950 58600
STARLINK-5291           
1 55273U 23010E   24038.74979546 -.00000349  00000+0 -21427-4 0  9993
2 55273  70.0013 163.0912 0002916 265.3061  94.7765 14.98329152 58801
STARLINK-5236           
1 55274U 23010F   24039.48376617  .00000301  00000+0  33042-4 0  9998
2 55274  70.0010 141.3712 0002889 268.9661  91.1167 14.98328790 59085
STARLINK-5260           
1 55275U 23010G   24038.67847285 -.00000271  00000+0 -14900-4 0  9993
2 55275  70.0016 143.3778 0002733 262.4589  97.6259 14.98328936 59289
STARLINK-5261           
1 55276U 23010H   24038.67429819  .00000141  00000+0  19645-4 0  9998
2 55276  70.0014 143.3630 0002731 266.1242  93.9605 14.98328543 59277
STARLINK-5299           
1 55277U 23010J   24039.48399757  .00003091  00000+0  26684-3 0  9993
2 55277  70.0015 161.2403 0002867 263.7647  96.3185 14.98308248 58604
STARLINK-5289           
1 55278U 23010K   24039.46729138  .00000212  00000+0  25547-4 0  9992
2 55278  70.0008 161.1809 0002817 264.8304  95.2534 14.98329200 58600
STARLINK-5323           
1 55279U 23010L   24039.47981263  .00000690  00000+0  65573-4 0  9996
2 55279  70.0014 161.2258 0002996 261.0298  99.0522 14.98332014 58590
STARLINK-5331           
1 55280U 23010M   24038.72474888  .00000001  00000+0  78477-5 0  9999
2 55280  70.0006 163.0003 0002873 263.9302  96.1530 14.98328960 58796
STARLINK-5298           
1 55281U 23010N   24039.47564222  .00002334  00000+0  20342-3 0  9992
2 55281  70.0011 161.2085 0002877 271.3631  88.7198 14.98318275 58600
STARLINK-5330           
1 55282U 23010P   24039.45477333 -.00000190  00000+0 -81422-5 0  9995
2 55282  70.0009 161.1328 0002777 263.5738  96.5105 14.98325514 58606
STARLINK-5317           
1 55283U 23010Q   24039.47146501  .00000846  00000+0  78686-4 0  9991
2 55283  70.0007 161.1944 0002829 269.6033  90.4801 14.98329424 58602
STARLINK-5337           
1 55284U 23010R   24038.78299604 -.00000624  00000+0 -44522-4 0  9996
2 55284  70.0018 162.8045 0002687 259.6151 100.4705 14.98330995 58809
STARLINK-5332           
1 55285U 23010S   24039.48768848 -.00000067  00000+0  21755-5 0  9990
2 55285  70.0005 121.1042 0002874 263.9304  96.1528 14.98332615 59588
STARLINK-5338           
1 55286U 23010T   24038.99975107 -.00000978  00000+0 -74167-4 0  9990
2 55286  70.0022 142.4938 0002517 265.6450  94.4422 14.98329102 59012
STARLINK-5341           
1 55287U 23010U   24039.48370894 -.00001488  00000+0 -11694-3 0  9990
2 55287  69.9998 121.4063 0002964 267.0120  93.0700 14.98325198 59570
STARLINK-5311           
1 55288U 23010V   24039.45471109  .00000070  00000+0  13658-4 0  9996
2 55288  70.0012 141.2676 0002870 273.1696  86.9135 14.98329416 59089
STARLINK-5320           
1 55289U 23010W   24038.67012276  .00000228  00000+0  26898-4 0  9991
2 55289  70.0008 143.3470 0003020 267.5696  92.5117 14.98328865 59276
STARLINK-5266           
1 55290U 23010X   24039.46290015 -.00000600  00000+0 -42544-4 0  9992
2 55290  70.0021 141.2989 0002618 264.2561  95.8300 14.98325468 59098
STARLINK-5327           
1 55291U 23010Y   24038.66193889 -.00000037  00000+0  46801-5 0  9999
2 55291  70.0010 143.3188 0002777 267.9156  92.1685 14.98330868 59273
STARLINK-5325           
1 55292U 23010Z   24038.71601015  .00000634  00000+0  60918-4 0  9997
2 55292  70.0008 143.1047 0002767 265.3330  94.7513 14.98330751 59288
STARLINK-5287           
1 55293U 23010AA  24038.72018377  .00000715  00000+0  67744-4 0  9996
2 55293  70.0020 143.1200 0002700 265.8384  94.2467 14.98330477 59283
STARLINK-5286           
1 55294U 23010AB  24038.72458393  .00001000  00000+0  91549-4 0  9991
2 55294  70.0010 162.9987 0002551 256.1646 103.9229 14.98329727 58797
STARLINK-5293           
1 55295U 23010AC  24038.76632550 -.00001634  00000+0 -12917-3 0  9991
2 55295  70.0013 163.1494 0002738 258.3202 101.7650 14.98331361 58809
STARLINK-5285           
1 55296U 23010AD  24039.50461423 -.00000933  00000+0 -70377-4 0  9990
2 55296  69.9999 141.0397 0003013 266.6472  93.4343 14.98327661 59091
STARLINK-5284           
1 55297U 23010AE  24038.71183543  .00000731  00000+0  69038-4 0  9993
2 55297  70.0014 143.0908 0002863 264.0299  96.0534 14.98328372 59286
STARLINK-5272           
1 55298U 23010AF  24039.43367057 -.00000373  00000+0 -23514-4 0  9991
2 55298  70.0015 141.1962 0002647 249.5566 110.5309 14.98328696 59081
STARLINK-5270           
1 55299U 23010AG  24039.58334491 -.00024530  00000+0 -20118-2 0  9990
2 55299  70.0022 140.8375 0003477 273.2981 155.2005 14.99150947 59117
STARLINK-5308           
1 55300U 23010AH  24038.69514340 -.00000132  00000+0 -32604-5 0  9995
2 55300  70.0001 143.0306 0003124 271.9793  88.1008 14.98326279 59288
STARLINK-5321           
1 55302U 23010AK  24038.70766263 -.00001498  00000+0 -11775-3 0  9992
2 55302  70.0011 143.0739 0003008 268.4308  91.6506 14.98334380 59289
STARLINK-5322           
1 55303U 23010AL  24039.44642409 -.00000557  00000+0 -38912-4 0  9998
2 55303  70.0027 161.1073 0002552 253.0057 107.0822 14.98325748 58609
STARLINK-5318           
1 55304U 23010AM  24039.49208725 -.00000035  00000+0  48424-5 0  9993
2 55304  70.0002 140.9952 0003046 270.2698  89.8112 14.98331651 59098
STARLINK-5316           
1 55305U 23010AN  24039.48794734  .00000498  00000+0  49544-4 0  9998
2 55305  70.0006 141.3867 0003127 268.4777  91.6024 14.98330957 59080
STARLINK-5295           
1 55306U 23010AP  24038.65737693  .00001574  00000+0  13970-3 0  9997
2 55306  70.0007 123.4295 0002819 259.4863 100.5979 14.98323828 59775
STARLINK-5288           
1 55307U 23010AQ  24039.46267691 -.00000444  00000+0 -29431-4 0  9991
2 55307  70.0008 121.4248 0002598 265.6243  94.4619 14.98326020 59575
STARLINK-5292           
1 55308U 23010AR  24038.64084673  .00001594  00000+0  14140-3 0  9993
2 55308  70.0008 123.3697 0002771 264.8062  95.2781 14.98323100 60643
STARLINK-5315           
1 55309U 23010AS  24039.45864590  .00003101  00000+0  26744-3 0  9997
2 55309  70.0020 121.4051 0001951 257.8471 102.2469 14.98344063 59579
STARLINK-5309           
1 55310U 23010AT  24038.64902648  .00000534  00000+0  52536-4 0  9992
2 55310  70.0005 123.3987 0002923 267.9540  92.1284 14.98331042 59779
STARLINK-5312           
1 55311U 23010AU  24039.45432650 -.00000719  00000+0 -52446-4 0  9991
2 55311  70.0010 121.3948 0002600 253.8580 106.2293 14.98328882 59574
STARLINK-5296           
1 55312U 23010AV  24039.49185696 -.00000101  00000+0 -64757-6 0  9996
2 55312  70.0006 121.0083 0002770 267.5234  92.5608 14.98327535 59585
STARLINK-5313           
1 55313U 23010AW  24038.64067871  .00000524  00000+0  51728-4 0  9996
2 55313  70.0007 123.3689 0003038 269.9504  90.1307 14.98330679 60640
STARLINK-5305           
1 55314U 23010AX  24038.64485218 -.00000107  00000+0 -11641-5 0  9996
2 55314  70.0009 123.3826 0002980 267.3527  92.7291 14.98333213 60645
STARLINK-4623           
1 55315U 23010AY  24039.45872198 -.00000153  00000+0 -50192-5 0  9999
2 55315  70.0013 141.2825 0002835 267.3763  92.7071 14.98326734 59093
STARLINK-5257           
1 55316U 23010AZ  24039.48351662 -.00000228  00000+0 -11350-4 0  9996
2 55316  70.0005 121.1076 0002711 264.6245  95.4604 14.98330473 59590
STARLINK-5265           
1 55317U 23010BA  24039.50439973 -.00001711  00000+0 -13566-3 0  9990
2 55317  70.0011 121.1932 0002594 254.7380 105.3492 14.98319822 59599
STARLINK-5180           
1 55318U 23010BB  24039.50021626 -.00000742  00000+0 -54410-4 0  9990
2 55318  70.0007 121.1511 0002756 262.3235  97.7611 14.98326871 59580
STARLINK-5196           
1 55319U 23010BC  24039.49604332  .00003076  00000+0  26561-3 0  9996
2 55319  70.0008 121.1352 0002621 267.9628  92.1231 14.98309138 59587
